[{"OBJECT_NAME":"TEVEL2-6","OBJECT_ID":"2025-052F","EPOCH":"2026-04-27T10:45:40.255776","MEAN_MOTION":15.32643666,"ECCENTRICITY":8.26e-5,"INCLINATION":97.3966,"RA_OF_ASC_NODE":13.7576,"ARG_OF_PERICENTER":344.4468,"MEAN_ANOMALY":15.6749,"EPHEMERIS_TYPE":0,"CLASSIFICATION_TYPE":"U","NORAD_CAT_ID":63215,"ELEMENT_SET_NO":999,"REV_AT_EPOCH":6233,"BSTAR":0.00073755,"MEAN_MOTION_DOT":0.00023216,"MEAN_MOTION_DDOT":0},{"OBJECT_NAME":"TEVEL2-1","OBJECT_ID":"2025-052H","EPOCH":"2026-04-27T12:37:41.005056","MEAN_MOTION":15.32169313,"ECCENTRICITY":0.000149,"INCLINATION":97.3939,"RA_OF_ASC_NODE":13.5169,"ARG_OF_PERICENTER":0.7588,"MEAN_ANOMALY":359.3656,"EPHEMERIS_TYPE":0,"CLASSIFICATION_TYPE":"U","NORAD_CAT_ID":63217,"ELEMENT_SET_NO":999,"REV_AT_EPOCH":6233,"BSTAR":0.00062921,"MEAN_MOTION_DOT":0.00019493,"MEAN_MOTION_DDOT":0},{"OBJECT_NAME":"TEVEL2-3","OBJECT_ID":"2025-052J","EPOCH":"2026-04-27T10:58:17.836032","MEAN_MOTION":15.32212591,"ECCENTRICITY":0.0001511,"INCLINATION":97.3943,"RA_OF_ASC_NODE":13.4641,"ARG_OF_PERICENTER":0.7864,"MEAN_ANOMALY":359.338,"EPHEMERIS_TYPE":0,"CLASSIFICATION_TYPE":"U","NORAD_CAT_ID":63218,"ELEMENT_SET_NO":999,"REV_AT_EPOCH":6232,"BSTAR":0.00064179,"MEAN_MOTION_DOT":0.00019913,"MEAN_MOTION_DDOT":0},{"OBJECT_NAME":"TEVEL2-2","OBJECT_ID":"2025-052K","EPOCH":"2026-04-27T06:22:16.499136","MEAN_MOTION":15.32169388,"ECCENTRICITY":0.0001694,"INCLINATION":97.3937,"RA_OF_ASC_NODE":13.2585,"ARG_OF_PERICENTER":359.1819,"MEAN_ANOMALY":0.942,"EPHEMERIS_TYPE":0,"CLASSIFICATION_TYPE":"U","NORAD_CAT_ID":63219,"ELEMENT_SET_NO":999,"REV_AT_EPOCH":6229,"BSTAR":0.00076095,"MEAN_MOTION_DOT":0.00023604,"MEAN_MOTION_DDOT":0},{"OBJECT_NAME":"TEVEL2-9","OBJECT_ID":"2025-052AD","EPOCH":"2026-04-27T12:09:20.094048","MEAN_MOTION":15.30336327,"ECCENTRICITY":0.0005166,"INCLINATION":97.4002,"RA_OF_ASC_NODE":12.9778,"ARG_OF_PERICENTER":341.0724,"MEAN_ANOMALY":19.0324,"EPHEMERIS_TYPE":0,"CLASSIFICATION_TYPE":"U","NORAD_CAT_ID":63237,"ELEMENT_SET_NO":999,"REV_AT_EPOCH":6227,"BSTAR":0.00062032,"MEAN_MOTION_DOT":0.00018156,"MEAN_MOTION_DDOT":0},{"OBJECT_NAME":"TEVEL2-7","OBJECT_ID":"2025-052AE","EPOCH":"2026-04-27T05:04:20.095680","MEAN_MOTION":15.30072047,"ECCENTRICITY":0.0005309,"INCLINATION":97.4001,"RA_OF_ASC_NODE":12.6198,"ARG_OF_PERICENTER":342.2193,"MEAN_ANOMALY":17.8861,"EPHEMERIS_TYPE":0,"CLASSIFICATION_TYPE":"U","NORAD_CAT_ID":63238,"ELEMENT_SET_NO":999,"REV_AT_EPOCH":6222,"BSTAR":0.00070253,"MEAN_MOTION_DOT":0.00020411,"MEAN_MOTION_DDOT":0},{"OBJECT_NAME":"TEVEL2-8","OBJECT_ID":"2025-052AF","EPOCH":"2026-04-27T05:15:23.143104","MEAN_MOTION":15.30053732,"ECCENTRICITY":0.0005332,"INCLINATION":97.4003,"RA_OF_ASC_NODE":12.606,"ARG_OF_PERICENTER":343.3909,"MEAN_ANOMALY":16.7156,"EPHEMERIS_TYPE":0,"CLASSIFICATION_TYPE":"U","NORAD_CAT_ID":63239,"ELEMENT_SET_NO":999,"REV_AT_EPOCH":6222,"BSTAR":0.0006993,"MEAN_MOTION_DOT":0.00020305,"MEAN_MOTION_DDOT":0},{"OBJECT_NAME":"HADES-ICM","OBJECT_ID":"2025-052BN","EPOCH":"2026-04-27T12:16:46.956576","MEAN_MOTION":15.77995148,"ECCENTRICITY":0.00037,"INCLINATION":97.3832,"RA_OF_ASC_NODE":20.3989,"ARG_OF_PERICENTER":138.4037,"MEAN_ANOMALY":221.7512,"EPHEMERIS_TYPE":0,"CLASSIFICATION_TYPE":"U","NORAD_CAT_ID":63492,"ELEMENT_SET_NO":999,"REV_AT_EPOCH":6278,"BSTAR":0.0022472,"MEAN_MOTION_DOT":0.00396955,"MEAN_MOTION_DDOT":0},{"OBJECT_NAME":"FORESAIL-1 PRIME","OBJECT_ID":"2025-276DS","EPOCH":"2026-04-27T04:31:59.498976","MEAN_MOTION":15.18224292,"ECCENTRICITY":8.314e-5,"INCLINATION":97.4218,"RA_OF_ASC_NODE":191.4071,"ARG_OF_PERICENTER":301.6092,"MEAN_ANOMALY":58.5061,"EPHEMERIS_TYPE":0,"CLASSIFICATION_TYPE":"U","NORAD_CAT_ID":66778,"ELEMENT_SET_NO":999,"REV_AT_EPOCH":2266,"BSTAR":0.00028842567,"MEAN_MOTION_DOT":5.836e-5,"MEAN_MOTION_DDOT":0}]
