TEVEL2-6                
1 63215U 25052F   26117.44838259  .00023216  00000+0  73755-3 0  9994
2 63215  97.3966  13.7576 0000826 344.4468  15.6749 15.32643666 62335
TEVEL2-1                
1 63217U 25052H   26117.52616904  .00019493  00000+0  62921-3 0  9991
2 63217  97.3939  13.5169 0001490   0.7588 359.3656 15.32169313 62333
TEVEL2-3                
1 63218U 25052J   26117.45715088  .00019913  00000+0  64179-3 0  9991
2 63218  97.3943  13.4641 0001511   0.7864 359.3380 15.32212591 62324
TEVEL2-2                
1 63219U 25052K   26117.26546874  .00023604  00000+0  76095-3 0  9998
2 63219  97.3937  13.2585 0001694 359.1819   0.9420 15.32169388 62291
TEVEL2-9                
1 63237U 25052AD  26117.50648257  .00018156  00000+0  62032-3 0  9995
2 63237  97.4002  12.9778 0005166 341.0724  19.0324 15.30336327 62277
TEVEL2-7                
1 63238U 25052AE  26117.21134370  .00020411  00000+0  70253-3 0  9991
2 63238  97.4001  12.6198 0005309 342.2193  17.8861 15.30072047 62225
TEVEL2-8                
1 63239U 25052AF  26117.21901786  .00020305  00000+0  69930-3 0  9997
2 63239  97.4003  12.6060 0005332 343.3909  16.7156 15.30053732 62224
HADES-ICM               
1 63492U 25052BN  26117.51165459  .00396955  00000+0  22472-2 0  9996
2 63492  97.3832  20.3989 0003700 138.4037 221.7512 15.77995148 62784
FORESAIL-1 PRIME        
1 66778U 25276DS  26117.18888309  .00005836  00000+0  28843-3 0  9997
2 66778  97.4218 191.4071 0000831 301.6092  58.5061 15.18224292 22660
